{
  "norad_id": 63780,
  "name": "STARLINK-33846",
  "history": [
    {
      "epoch": "2026-03-28T21:02:26.714976Z",
      "apogee_km": 483.7854685005914,
      "perigee_km": 482.1766735352994,
      "latitude_deg": 4.9491178512735116e-05,
      "longitude_deg": 162.52709139283172,
      "height_km": 482.7455822945775,
      "semi_major_axis_km": 6861.118071017945,
      "eccentricity": 0.00011724,
      "inclination_deg": 43.0006,
      "raan_deg": 304.4292,
      "arg_perigee_deg": 270.859,
      "mean_anomaly_deg": 89.2128,
      "mean_motion_rev_day": 15.27602718
    },
    {
      "epoch": "2026-03-29T23:43:06.032928Z",
      "apogee_km": 484.6553785033293,
      "perigee_km": 481.30715278969365,
      "latitude_deg": -3.4167002302187166e-06,
      "longitude_deg": 114.98950100353608,
      "height_km": 482.736668778499,
      "semi_major_axis_km": 6861.118265646512,
      "eccentricity": 0.000244,
      "inclination_deg": 43.0018,
      "raan_deg": 298.1511,
      "arg_perigee_deg": 270.7628,
      "mean_anomaly_deg": 89.2944,
      "mean_motion_rev_day": 15.27602653
    },
    {
      "epoch": "2026-03-29T23:43:06.033792Z",
      "apogee_km": 484.6551726697826,
      "perigee_km": 481.3073586232422,
      "latitude_deg": -5.775205034645366e-06,
      "longitude_deg": 114.989494878629,
      "height_km": 482.7366715182482,
      "semi_major_axis_km": 6861.118265646512,
      "eccentricity": 0.00024397,
      "inclination_deg": 43.0018,
      "raan_deg": 298.1511,
      "arg_perigee_deg": 270.7628,
      "mean_anomaly_deg": 89.2944,
      "mean_motion_rev_day": 15.27602653
    },
    {
      "epoch": "2026-03-30T21:41:18.019392Z",
      "apogee_km": 484.459684443671,
      "perigee_km": 481.48470749629814,
      "latitude_deg": -4.507079869071021e-05,
      "longitude_deg": 139.36723835036426,
      "height_km": 482.8383124704973,
      "semi_major_axis_km": 6861.109195969984,
      "eccentricity": 0.0002168,
      "inclination_deg": 43.0018,
      "raan_deg": 292.9811,
      "arg_perigee_deg": 266.584,
      "mean_anomaly_deg": 93.4763,
      "mean_motion_rev_day": 15.27605682
    },
    {
      "epoch": "2026-04-01T19:11:50.535744Z",
      "apogee_km": 483.83687235940215,
      "perigee_km": 482.2807531490698,
      "latitude_deg": -2.604481274630269e-05,
      "longitude_deg": 164.15528679352917,
      "height_km": 482.7079722214599,
      "semi_major_axis_km": 6861.195812754236,
      "eccentricity": 0.0001134,
      "inclination_deg": 43.0003,
      "raan_deg": 282.2736,
      "arg_perigee_deg": 279.421,
      "mean_anomaly_deg": 80.6513,
      "mean_motion_rev_day": 15.27576755
    },
    {
      "epoch": "2026-04-02T20:18:21.968640Z",
      "apogee_km": 484.17875396094405,
      "perigee_km": 481.73620432636835,
      "latitude_deg": -8.556471504117995e-06,
      "longitude_deg": 140.58205692484964,
      "height_km": 482.5415425373314,
      "semi_major_axis_km": 6861.094479143656,
      "eccentricity": 0.000178,
      "inclination_deg": 42.9982,
      "raan_deg": 276.3625,
      "arg_perigee_deg": 279.0808,
      "mean_anomaly_deg": 80.9842,
      "mean_motion_rev_day": 15.27610597
    },
    {
      "epoch": "2026-04-02T20:18:21.969504Z",
      "apogee_km": 484.1786853499998,
      "perigee_km": 481.7362729373135,
      "latitude_deg": -9.332957797018402e-06,
      "longitude_deg": 140.5820524868623,
      "height_km": 482.54155336445314,
      "semi_major_axis_km": 6861.094479143656,
      "eccentricity": 0.00017799,
      "inclination_deg": 42.9982,
      "raan_deg": 276.3625,
      "arg_perigee_deg": 279.0808,
      "mean_anomaly_deg": 80.9842,
      "mean_motion_rev_day": 15.27610597
    },
    {
      "epoch": "2026-04-03T18:16:31.744128Z",
      "apogee_km": 484.55764804585215,
      "perigee_km": 481.23416370624636,
      "latitude_deg": -1.8655733564790892e-05,
      "longitude_deg": 164.9684645449542,
      "height_km": 482.87886109038044,
      "semi_major_axis_km": 6861.032905876049,
      "eccentricity": 0.0002422,
      "inclination_deg": 43.0022,
      "raan_deg": 271.1919,
      "arg_perigee_deg": 262.904,
      "mean_anomaly_deg": 97.1536,
      "mean_motion_rev_day": 15.27631161
    },
    {
      "epoch": "2026-04-04T19:23:01.364352Z",
      "apogee_km": 484.4753507128953,
      "perigee_km": 481.53192138003214,
      "latitude_deg": 9.596468849885215e-06,
      "longitude_deg": 141.40731801018453,
      "height_km": 482.75113893011206,
      "semi_major_axis_km": 6861.140636046463,
      "eccentricity": 0.0002145,
      "inclination_deg": 43.0008,
      "raan_deg": 265.2853,
      "arg_perigee_deg": 271.1629,
      "mean_anomaly_deg": 88.8977,
      "mean_motion_rev_day": 15.27595182
    },
    {
      "epoch": "2026-04-05T11:04:35.925888Z",
      "apogee_km": 484.056020679016,
      "perigee_km": 481.9890277607483,
      "latitude_deg": -3.891615950653927e-06,
      "longitude_deg": -98.32268967181427,
      "height_km": 482.7737881433708,
      "semi_major_axis_km": 6861.159524219882,
      "eccentricity": 0.00015063,
      "inclination_deg": 43.0012,
      "raan_deg": 261.5938,
      "arg_perigee_deg": 271.4228,
      "mean_anomaly_deg": 88.6451,
      "mean_motion_rev_day": 15.27588874
    },
    {
      "epoch": "2026-04-05T20:29:32.742816Z",
      "apogee_km": 484.46002074882654,
      "perigee_km": 481.70867098913277,
      "latitude_deg": -6.079100524911215e-05,
      "longitude_deg": 117.83861930420098,
      "height_km": 482.6783289793324,
      "semi_major_axis_km": 6861.221345868979,
      "eccentricity": 0.0002005,
      "inclination_deg": 43.0021,
      "raan_deg": 259.3786,
      "arg_perigee_deg": 277.6633,
      "mean_anomaly_deg": 82.399,
      "mean_motion_rev_day": 15.27568228
    },
    {
      "epoch": "2026-04-05T20:29:32.743680Z",
      "apogee_km": 484.46022658546735,
      "perigee_km": 481.70846515249286,
      "latitude_deg": -5.8452956552004233e-05,
      "longitude_deg": 117.83861818756131,
      "height_km": 482.6783015344105,
      "semi_major_axis_km": 6861.221345868979,
      "eccentricity": 0.00020053,
      "inclination_deg": 43.0021,
      "raan_deg": 259.3786,
      "arg_perigee_deg": 277.6633,
      "mean_anomaly_deg": 82.399,
      "mean_motion_rev_day": 15.27568228
    },
    {
      "epoch": "2026-04-07T10:09:17.673408Z",
      "apogee_km": 483.35867052567846,
      "perigee_km": 482.559078412467,
      "latitude_deg": 1.6300733109263654e-05,
      "longitude_deg": -97.50555639230954,
      "height_km": 482.9440807527784,
      "semi_major_axis_km": 6861.095874469072,
      "eccentricity": 5.827e-05,
      "inclination_deg": 42.9999,
      "raan_deg": 250.5183,
      "arg_perigee_deg": 238.4224,
      "mean_anomaly_deg": 121.6571,
      "mean_motion_rev_day": 15.27610131
    },
    {
      "epoch": "2026-04-07T19:34:15.021696Z",
      "apogee_km": 484.16729071064765,
      "perigee_km": 482.176138921609,
      "latitude_deg": 2.1577569946588236e-05,
      "longitude_deg": 118.65109837507809,
      "height_km": 483.4246165231641,
      "semi_major_axis_km": 6861.3087148161285,
      "eccentricity": 0.0001451,
      "inclination_deg": 43.0025,
      "raan_deg": 248.3006,
      "arg_perigee_deg": 241.4316,
      "mean_anomaly_deg": 118.639,
      "mean_motion_rev_day": 15.27539051
    },
    {
      "epoch": "2026-04-08T15:58:18.057792Z",
      "apogee_km": 484.08076632350003,
      "perigee_km": 481.95394569622385,
      "latitude_deg": -3.702633888730118e-05,
      "longitude_deg": 166.99995001985678,
      "height_km": 483.40637670551763,
      "semi_major_axis_km": 6861.154356009862,
      "eccentricity": 0.00015499,
      "inclination_deg": 43.0017,
      "raan_deg": 243.5,
      "arg_perigee_deg": 234.8435,
      "mean_anomaly_deg": 125.2271,
      "mean_motion_rev_day": 15.275906
    },
    {
      "epoch": "2026-04-09T17:04:46.814016Z",
      "apogee_km": 483.71275864006475,
      "perigee_km": 482.11276183597784,
      "latitude_deg": 2.869357326896553e-05,
      "longitude_deg": 143.44315097787353,
      "height_km": 482.98543182762336,
      "semi_major_axis_km": 6861.049760238021,
      "eccentricity": 0.0001166,
      "inclination_deg": 43.0027,
      "raan_deg": 237.5941,
      "arg_perigee_deg": 248.2853,
      "mean_anomaly_deg": 111.7875,
      "mean_motion_rev_day": 15.27625532
    },
    {
      "epoch": "2026-04-10T10:20:29.885280Z",
      "apogee_km": 483.8028030025753,
      "perigee_km": 482.16848358894185,
      "latitude_deg": -1.424833249563521e-05,
      "longitude_deg": -120.26048396183883,
      "height_km": 483.36794381351245,
      "semi_major_axis_km": 6861.122643295758,
      "eccentricity": 0.0001191,
      "inclination_deg": 43.0,
      "raan_deg": 233.5289,
      "arg_perigee_deg": 222.111,
      "mean_anomaly_deg": 137.965,
      "mean_motion_rev_day": 15.27601191
    },
    {
      "epoch": "2026-04-11T16:09:28.195200Z",
      "apogee_km": 483.9208689408051,
      "perigee_km": 482.12324526784323,
      "latitude_deg": 1.2219493773979167e-05,
      "longitude_deg": 144.25667614951738,
      "height_km": 483.139812636824,
      "semi_major_axis_km": 6861.159057104323,
      "eccentricity": 0.000131,
      "inclination_deg": 43.0036,
      "raan_deg": 226.5135,
      "arg_perigee_deg": 247.7137,
      "mean_anomaly_deg": 112.3576,
      "mean_motion_rev_day": 15.2758903
    },
    {
      "epoch": "2026-04-13T01:06:45.510912Z",
      "apogee_km": 483.338628121056,
      "perigee_km": 482.7275723119301,
      "latitude_deg": 3.225999667143483e-05,
      "longitude_deg": 0.822941776337369,
      "height_km": 483.05098929135585,
      "semi_major_axis_km": 6861.170100216493,
      "eccentricity": 4.453e-05,
      "inclination_deg": 43.0028,
      "raan_deg": 218.7553,
      "arg_perigee_deg": 217.6403,
      "mean_anomaly_deg": 142.4418,
      "mean_motion_rev_day": 15.27585342
    }
  ]
}